[
    {
        "Altitude(m)": 604969.0892060068,
        "Argument of Periapsis(deg)": 0.0,
        "Eccentricity": 0.0,
        "Inclination(deg)": 60.0,
        "Latitude(deg)": -0.09271885446230882,
        "Longitude(deg)": -125.0224724900339,
        "Mean Anomaly(deg)": 0.0,
        "RAAN(deg)": 335.0,
        "Satellite Name": "Test1 1474",
        "Satellite Number": 1474,
        "Semi-Major Axis(m)": 6980739.136638005,
        "Time(s)": 0
    },
    {
        "Altitude(m)": 604900.0282946486,
        "Argument of Periapsis(deg)": 0.00010418945913296404,
        "Eccentricity": 0.0,
        "Inclination(deg)": 60.0,
        "Latitude(deg)": 0.44770676335237697,
        "Longitude(deg)": -124.75434890915122,
        "Mean Anomaly(deg)": 0.620106145461853,
        "RAAN(deg)": 334.99957995086027,
        "Satellite Name": "Test1 1474",
        "Satellite Number": 1474,
        "Semi-Major Axis(m)": 6980739.136638005,
        "Time(s)": 10
    }
]